{
  "type": "FeatureCollection",
  "features": [
    {
      "type": "Feature",
      "properties": {
        "norad_id": 33412,
        "name": "COSMO-SKYMED 3",
        "group": "resource",
        "lat": 72.98340077501318,
        "lon": 59.1989802058364,
        "alt_km": 531.8200605875008,
        "timestamp": "2025-12-27T18:38:03.135962+00:00",
        "meta_object_name": "COSMO-SKYMED 3",
        "meta_object_id": "2008-054A",
        "meta_epoch": "2025-12-27T13:23:02.059008",
        "meta_mean_motion": 15.05481738,
        "meta_eccentricity": 0.0017071,
        "meta_inclination": 97.8451,
        "meta_ra_of_asc_node": 212.1997,
        "meta_arg_of_pericenter": 124.5952,
        "meta_mean_anomaly": 235.6887,
        "meta_ephemeris_type": 0,
        "meta_classification_type": "U",
        "meta_norad_cat_id": 33412,
        "meta_element_set_no": 999,
        "meta_rev_at_epoch": 93110,
        "meta_bstar": 0.00025041,
        "meta_mean_motion_dot": 3.545e-05,
        "meta_mean_motion_ddot": 0,
        "tle_line1": "1 33412U 08054A   25361.55766272  .00003545  00000+0  25041-3 0  9998",
        "tle_line2": "2 33412  97.8451 212.1997 0017071 124.5952 235.6887 15.05481738931109"
      },
      "geometry": {
        "type": "Point",
        "coordinates": [
          59.1989802058364,
          72.98340077501318
        ]
      }
    },
    {
      "type": "Feature",
      "properties": {
        "norad_id": 33446,
        "name": "YAOGAN-4",
        "group": "resource",
        "lat": -60.41217247299649,
        "lon": -54.07838857813846,
        "alt_km": 619.9200791075064,
        "timestamp": "2025-12-27T18:38:03.135973+00:00",
        "meta_object_name": "YAOGAN-4",
        "meta_object_id": "2008-061A",
        "meta_epoch": "2025-12-27T09:11:33.320256",
        "meta_mean_motion": 14.82726039,
        "meta_eccentricity": 0.0012973,
        "meta_inclination": 97.9199,
        "meta_ra_of_asc_node": 291.3399,
        "meta_arg_of_pericenter": 271.2097,
        "meta_mean_anomaly": 88.763,
        "meta_ephemeris_type": 0,
        "meta_classification_type": "U",
        "meta_norad_cat_id": 33446,
        "meta_element_set_no": 999,
        "meta_rev_at_epoch": 92020,
        "meta_bstar": 0.00020996,
        "meta_mean_motion_dot": 1.643e-05,
        "meta_mean_motion_ddot": 0,
        "tle_line1": "1 33446U 08061A   25361.38302454  .00001643  00000+0  20996-3 0  9993",
        "tle_line2": "2 33446  97.9199 291.3399 0012973 271.2097  88.7630 14.82726039920209"
      },
      "geometry": {
        "type": "Point",
        "coordinates": [
          -54.07838857813846,
          -60.41217247299649
        ]
      }
    },
    {
      "type": "Feature",
      "properties": {
        "norad_id": 33492,
        "name": "GOSAT (IBUKI)",
        "group": "resource",
        "lat": -69.77219701330164,
        "lon": -92.49293302319343,
        "alt_km": 677.0310086989784,
        "timestamp": "2025-12-27T18:38:03.135984+00:00",
        "meta_object_name": "GOSAT (IBUKI)",
        "meta_object_id": "2009-002A",
        "meta_epoch": "2025-12-27T07:40:27.046272",
        "meta_mean_motion": 14.67544458,
        "meta_eccentricity": 0.0001563,
        "meta_inclination": 98.0754,
        "meta_ra_of_asc_node": 109.7197,
        "meta_arg_of_pericenter": 113.0612,
        "meta_mean_anomaly": 247.0757,
        "meta_ephemeris_type": 0,
        "meta_classification_type": "U",
        "meta_norad_cat_id": 33492,
        "meta_element_set_no": 999,
        "meta_rev_at_epoch": 90625,
        "meta_bstar": 0.00018893,
        "meta_mean_motion_dot": 1.024e-05,
        "meta_mean_motion_ddot": 0,
        "tle_line1": "1 33492U 09002A   25361.31975748  .00001024  00000+0  18893-3 0  9991",
        "tle_line2": "2 33492  98.0754 109.7197 0001563 113.0612 247.0757 14.67544458906251"
      },
      "geometry": {
        "type": "Point",
        "coordinates": [
          -92.49293302319343,
          -69.77219701330164
        ]
      }
    },
    {
      "type": "Feature",
      "properties": {
        "norad_id": 35681,
        "name": "DEIMOS-1",
        "group": "resource",
        "lat": 9.533638368431877,
        "lon": 160.37586058542516,
        "alt_km": 645.7763127061189,
        "timestamp": "2025-12-27T18:38:03.135995+00:00",
        "meta_object_name": "DEIMOS-1",
        "meta_object_id": "2009-041A",
        "meta_epoch": "2025-12-27T12:04:41.441088",
        "meta_mean_motion": 14.7497674,
        "meta_eccentricity": 0.0002367,
        "meta_inclination": 97.7159,
        "meta_ra_of_asc_node": 161.4202,
        "meta_arg_of_pericenter": 57.2685,
        "meta_mean_anomaly": 302.8753,
        "meta_ephemeris_type": 0,
        "meta_classification_type": "U",
        "meta_norad_cat_id": 35681,
        "meta_element_set_no": 999,
        "meta_rev_at_epoch": 88157,
        "meta_bstar": 0.00018419,
        "meta_mean_motion_dot": 1.191e-05,
        "meta_mean_motion_ddot": 0,
        "tle_line1": "1 35681U 09041A   25361.50325742  .00001191  00000+0  18419-3 0  9999",
        "tle_line2": "2 35681  97.7159 161.4202 0002367  57.2685 302.8753 14.74976740881576"
      },
      "geometry": {
        "type": "Point",
        "coordinates": [
          160.37586058542516,
          9.533638368431877
        ]
      }
    },
    {
      "type": "Feature",
      "properties": {
        "norad_id": 35682,
        "name": "DUBAISAT-1",
        "group": "resource",
        "lat": -71.61616897490391,
        "lon": 157.20243844423314,
        "alt_km": 647.7159644733701,
        "timestamp": "2025-12-27T18:38:03.136006+00:00",
        "meta_object_name": "DUBAISAT-1",
        "meta_object_id": "2009-041B",
        "meta_epoch": "2025-12-27T09:11:43.157760",
        "meta_mean_motion": 14.74645207,
        "meta_eccentricity": 0.0009283,
        "meta_inclination": 97.98,
        "meta_ra_of_asc_node": 131.8483,
        "meta_arg_of_pericenter": 261.7216,
        "meta_mean_anomaly": 98.294,
        "meta_ephemeris_type": 0,
        "meta_classification_type": "U",
        "meta_norad_cat_id": 35682,
        "meta_element_set_no": 999,
        "meta_rev_at_epoch": 87977,
        "meta_bstar": 0.00024482,
        "meta_mean_motion_dot": 1.584e-05,
        "meta_mean_motion_ddot": 0,
        "tle_line1": "1 35682U 09041B   25361.38313840  .00001584  00000+0  24482-3 0  9995",
        "tle_line2": "2 35682  97.9800 131.8483 0009283 261.7216  98.2940 14.74645207879774"
      },
      "geometry": {
        "type": "Point",
        "coordinates": [
          157.20243844423314,
          -71.61616897490391
        ]
      }
    },
    {
      "type": "Feature",
      "properties": {
        "norad_id": 35931,
        "name": "OCEANSAT-2",
        "group": "resource",
        "lat": 9.779867999246546,
        "lon": -0.5769714462697416,
        "alt_km": 885.1555010368174,
        "timestamp": "2025-12-27T18:38:03.136017+00:00",
        "meta_object_name": "OCEANSAT-2",
        "meta_object_id": "2009-051A",
        "meta_epoch": "2025-12-27T13:26:24.559872",
        "meta_mean_motion": 13.99623268,
        "meta_eccentricity": 0.0015842,
        "meta_inclination": 98.2218,
        "meta_ra_of_asc_node": 0.6566,
        "meta_arg_of_pericenter": 6.0292,
        "meta_mean_anomaly": 354.1063,
        "meta_ephemeris_type": 0,
        "meta_classification_type": "U",
        "meta_norad_cat_id": 35931,
        "meta_element_set_no": 999,
        "meta_rev_at_epoch": 85532,
        "meta_bstar": 6.9767e-05,
        "meta_mean_motion_dot": 6.5e-07,
        "meta_mean_motion_ddot": 0,
        "tle_line1": "1 35931U 09051A   25361.56000648  .00000065  00000+0  69767-4 0  9991",
        "tle_line2": "2 35931  98.2218   0.6566 0015842   6.0292 354.1063 13.99623268855329"
      },
      "geometry": {
        "type": "Point",
        "coordinates": [
          -0.5769714462697416,
          9.779867999246546
        ]
      }
    },
    {
      "type": "Feature",
      "properties": {
        "norad_id": 35946,
        "name": "WORLDVIEW-2 (WV-2)",
        "group": "resource",
        "lat": 30.987633814782054,
        "lon": 67.51547526774449,
        "alt_km": 761.0040578918015,
        "timestamp": "2025-12-27T18:38:03.136028+00:00",
        "meta_object_name": "WORLDVIEW-2 (WV-2)",
        "meta_object_id": "2009-055A",
        "meta_epoch": "2025-12-27T11:48:28.285056",
        "meta_mean_motion": 14.37730677,
        "meta_eccentricity": 0.0004593,
        "meta_inclination": 98.477,
        "meta_ra_of_asc_node": 72.3737,
        "meta_arg_of_pericenter": 34.0282,
        "meta_mean_anomaly": 326.1199,
        "meta_ephemeris_type": 0,
        "meta_classification_type": "U",
        "meta_norad_cat_id": 35946,
        "meta_element_set_no": 999,
        "meta_rev_at_epoch": 85097,
        "meta_bstar": 7.9991e-05,
        "meta_mean_motion_dot": 1.97e-06,
        "meta_mean_motion_ddot": 0,
        "tle_line1": "1 35946U 09055A   25361.49199404  .00000197  00000+0  79991-4 0  9998",
        "tle_line2": "2 35946  98.4770  72.3737 0004593  34.0282 326.1199 14.37730677850978"
      },
      "geometry": {
        "type": "Point",
        "coordinates": [
          67.51547526774449,
          30.987633814782054
        ]
      }
    }
  ]
}